{
  "type": "FeatureCollection",
  "features": [
    {
      "type": "Feature",
      "properties": {
        "norad_id": 66653,
        "name": "2025-274D",
        "group": "last-30-days",
        "lat": 27.89513749627067,
        "lon": -86.42645968501112,
        "alt_km": 597.477253376358,
        "timestamp": "2025-12-16T13:52:36.287299+00:00",
        "meta_object_name": "2025-274D",
        "meta_object_id": "2025-274D",
        "meta_epoch": "2025-12-15T18:26:05.260416",
        "meta_mean_motion": 14.91923776,
        "meta_eccentricity": 0.00112375,
        "meta_inclination": 97.7391,
        "meta_ra_of_asc_node": 276.9064,
        "meta_arg_of_pericenter": 242.1819,
        "meta_mean_anomaly": 117.8262,
        "meta_ephemeris_type": 0,
        "meta_classification_type": "U",
        "meta_norad_cat_id": 66653,
        "meta_element_set_no": 999,
        "meta_rev_at_epoch": 285,
        "meta_bstar": 0.00018746863,
        "meta_mean_motion_dot": 1.842e-05,
        "meta_mean_motion_ddot": 0,
        "tle_line1": "1 66653U 25274D   25349.76811644  .00001842  00000+0  18747-3 0  9990",
        "tle_line2": "2 66653  97.7391 276.9064 0011237 242.1819 117.8262 14.91923776  2850"
      },
      "geometry": {
        "type": "Point",
        "coordinates": [
          -86.42645968501112,
          27.89513749627067
        ]
      }
    },
    {
      "type": "Feature",
      "properties": {
        "norad_id": 66654,
        "name": "JACK E",
        "group": "last-30-days",
        "lat": 39.87215342547667,
        "lon": -88.81517239303264,
        "alt_km": 595.9660089319623,
        "timestamp": "2025-12-16T13:52:36.287309+00:00",
        "meta_object_name": "JACK E",
        "meta_object_id": "2025-274E",
        "meta_epoch": "2025-12-15T18:22:58.143072",
        "meta_mean_motion": 14.92103463,
        "meta_eccentricity": 0.00117355,
        "meta_inclination": 97.7394,
        "meta_ra_of_asc_node": 276.9099,
        "meta_arg_of_pericenter": 243.8484,
        "meta_mean_anomaly": 116.1528,
        "meta_ephemeris_type": 0,
        "meta_classification_type": "U",
        "meta_norad_cat_id": 66654,
        "meta_element_set_no": 999,
        "meta_rev_at_epoch": 285,
        "meta_bstar": 0.00021120165,
        "meta_mean_motion_dot": 2.093e-05,
        "meta_mean_motion_ddot": 0,
        "tle_line1": "1 66654U 25274E   25349.76595073  .00002093  00000+0  21120-3 0  9994",
        "tle_line2": "2 66654  97.7394 276.9099 0011735 243.8484 116.1528 14.92103463  2852"
      },
      "geometry": {
        "type": "Point",
        "coordinates": [
          -88.81517239303264,
          39.87215342547667
        ]
      }
    },
    {
      "type": "Feature",
      "properties": {
        "norad_id": 66655,
        "name": "2025-274F",
        "group": "last-30-days",
        "lat": 30.299131909231384,
        "lon": -86.85208950703486,
        "alt_km": 589.3844790149769,
        "timestamp": "2025-12-16T13:52:36.287319+00:00",
        "meta_object_name": "2025-274F",
        "meta_object_id": "2025-274F",
        "meta_epoch": "2025-12-15T18:24:51.813504",
        "meta_mean_motion": 14.9116583,
        "meta_eccentricity": 0.00052589,
        "meta_inclination": 97.7322,
        "meta_ra_of_asc_node": 276.907,
        "meta_arg_of_pericenter": 10.5335,
        "meta_mean_anomaly": 349.5992,
        "meta_ephemeris_type": 0,
        "meta_classification_type": "U",
        "meta_norad_cat_id": 66655,
        "meta_element_set_no": 999,
        "meta_rev_at_epoch": 285,
        "meta_bstar": 6.60162e-06,
        "meta_mean_motion_dot": 1.1e-07,
        "meta_mean_motion_ddot": 0,
        "tle_line1": "1 66655U 25274F   25349.76726636  .00000011  00000+0  66016-5 0  9999",
        "tle_line2": "2 66655  97.7322 276.9070 0005258  10.5335 349.5992 14.91165830  2852"
      },
      "geometry": {
        "type": "Point",
        "coordinates": [
          -86.85208950703486,
          30.299131909231384
        ]
      }
    },
    {
      "type": "Feature",
      "properties": {
        "norad_id": 66656,
        "name": "2025-274G",
        "group": "last-30-days",
        "lat": 52.874802131997164,
        "lon": -92.6370436846937,
        "alt_km": 594.3349586376571,
        "timestamp": "2025-12-16T13:52:36.287329+00:00",
        "meta_object_name": "2025-274G",
        "meta_object_id": "2025-274G",
        "meta_epoch": "2025-12-15T18:19:33.556512",
        "meta_mean_motion": 14.92295944,
        "meta_eccentricity": 0.0012347,
        "meta_inclination": 97.7394,
        "meta_ra_of_asc_node": 276.9124,
        "meta_arg_of_pericenter": 245.5135,
        "meta_mean_anomaly": 114.4797,
        "meta_ephemeris_type": 0,
        "meta_classification_type": "U",
        "meta_norad_cat_id": 66656,
        "meta_element_set_no": 999,
        "meta_rev_at_epoch": 285,
        "meta_bstar": 0.00023921984,
        "meta_mean_motion_dot": 2.39e-05,
        "meta_mean_motion_ddot": 0,
        "tle_line1": "1 66656U 25274G   25349.76358283  .00002390  00000+0  23922-3 0  9998",
        "tle_line2": "2 66656  97.7394 276.9124 0012347 245.5135 114.4797 14.92295944  2850"
      },
      "geometry": {
        "type": "Point",
        "coordinates": [
          -92.6370436846937,
          52.874802131997164
        ]
      }
    },
    {
      "type": "Feature",
      "properties": {
        "norad_id": 66657,
        "name": "SPIRONE",
        "group": "last-30-days",
        "lat": 65.24473665397976,
        "lon": -99.43533183796755,
        "alt_km": 590.9659608100174,
        "timestamp": "2025-12-16T13:52:36.287341+00:00",
        "meta_object_name": "SPIRONE",
        "meta_object_id": "2025-274H",
        "meta_epoch": "2025-12-15T18:16:16.075488",
        "meta_mean_motion": 14.92474915,
        "meta_eccentricity": 0.00105763,
        "meta_inclination": 97.7391,
        "meta_ra_of_asc_node": 276.9146,
        "meta_arg_of_pericenter": 264.452,
        "meta_mean_anomaly": 95.5493,
        "meta_ephemeris_type": 0,
        "meta_classification_type": "U",
        "meta_norad_cat_id": 66657,
        "meta_element_set_no": 999,
        "meta_rev_at_epoch": 285,
        "meta_bstar": 0.00025256556,
        "meta_mean_motion_dot": 2.537e-05,
        "meta_mean_motion_ddot": 0,
        "tle_line1": "1 66657U 25274H   25349.76129717  .00002537  00000+0  25257-3 0  9993",
        "tle_line2": "2 66657  97.7391 276.9146 0010576 264.4520  95.5493 14.92474915  2851"
      },
      "geometry": {
        "type": "Point",
        "coordinates": [
          -99.43533183796755,
          65.24473665397976
        ]
      }
    },
    {
      "type": "Feature",
      "properties": {
        "norad_id": 66658,
        "name": "2025-274J",
        "group": "last-30-days",
        "lat": 76.42194193733111,
        "lon": -116.54540130794136,
        "alt_km": 590.1781001829759,
        "timestamp": "2025-12-16T13:52:36.287351+00:00",
        "meta_object_name": "2025-274J",
        "meta_object_id": "2025-274J",
        "meta_epoch": "2025-12-15T18:13:04.582848",
        "meta_mean_motion": 14.92644507,
        "meta_eccentricity": 0.00111235,
        "meta_inclination": 97.7391,
        "meta_ra_of_asc_node": 276.9178,
        "meta_arg_of_pericenter": 267.5727,
        "meta_mean_anomaly": 92.4219,
        "meta_ephemeris_type": 0,
        "meta_classification_type": "U",
        "meta_norad_cat_id": 66658,
        "meta_element_set_no": 999,
        "meta_rev_at_epoch": 285,
        "meta_bstar": 0.00027078696,
        "meta_mean_motion_dot": 2.736e-05,
        "meta_mean_motion_ddot": 0,
        "tle_line1": "1 66658U 25274J   25349.75908082  .00002736  00000+0  27079-3 0  9998",
        "tle_line2": "2 66658  97.7391 276.9178 0011123 267.5727  92.4219 14.92644507  2857"
      },
      "geometry": {
        "type": "Point",
        "coordinates": [
          -116.54540130794136,
          76.42194193733111
        ]
      }
    },
    {
      "type": "Feature",
      "properties": {
        "norad_id": 66659,
        "name": "JACK K",
        "group": "last-30-days",
        "lat": 81.98362795059752,
        "lon": 172.6682527871424,
        "alt_km": 589.8577235280809,
        "timestamp": "2025-12-16T13:52:36.287362+00:00",
        "meta_object_name": "JACK K",
        "meta_object_id": "2025-274K",
        "meta_epoch": "2025-12-15T18:09:39.794112",
        "meta_mean_motion": 14.92829314,
        "meta_eccentricity": 0.00118457,
        "meta_inclination": 97.7392,
        "meta_ra_of_asc_node": 276.9215,
        "meta_arg_of_pericenter": 269.0078,
        "meta_mean_anomaly": 90.9784,
        "meta_ephemeris_type": 0,
        "meta_classification_type": "U",
        "meta_norad_cat_id": 66659,
        "meta_element_set_no": 999,
        "meta_rev_at_epoch": 285,
        "meta_bstar": 0.00026285766,
        "meta_mean_motion_dot": 2.667e-05,
        "meta_mean_motion_ddot": 0,
        "tle_line1": "1 66659U 25274K   25349.75671058  .00002667  00000+0  26286-3 0  9991",
        "tle_line2": "2 66659  97.7392 276.9215 0011845 269.0078  90.9784 14.92829314  2859"
      },
      "geometry": {
        "type": "Point",
        "coordinates": [
          172.6682527871424,
          81.98362795059752
        ]
      }
    }
  ]
}